{
  "type": "FeatureCollection",
  "features": [
    {
      "type": "Feature",
      "properties": {
        "norad_id": 34010,
        "name": "COSMOS 2251 DEB",
        "group": "cosmos-2251-debris",
        "lat": 73.39497586021315,
        "lon": -2.599526043800975,
        "alt_km": 491.92262750926784,
        "timestamp": "2025-12-27T19:21:59.138764+00:00",
        "meta_object_name": "COSMOS 2251 DEB",
        "meta_object_id": "1993-036GV",
        "meta_epoch": "2025-12-27T03:10:11.548704",
        "meta_mean_motion": 15.21173016,
        "meta_eccentricity": 0.00048923,
        "meta_inclination": 73.996,
        "meta_ra_of_asc_node": 253.0769,
        "meta_arg_of_pericenter": 55.592,
        "meta_mean_anomaly": 304.574,
        "meta_ephemeris_type": 0,
        "meta_classification_type": "U",
        "meta_norad_cat_id": 34010,
        "meta_element_set_no": 999,
        "meta_rev_at_epoch": 89504,
        "meta_bstar": 0.0047140334,
        "meta_mean_motion_dot": 0.00106651,
        "meta_mean_motion_ddot": 0,
        "tle_line1": "1 34010U 93036GV  25361.13207811  .00106651  00000+0  47140-2 0  9995",
        "tle_line2": "2 34010  73.9960 253.0769 0004892  55.5920 304.5740 15.21173016895041"
      },
      "geometry": {
        "type": "Point",
        "coordinates": [
          -2.599526043800975,
          73.39497586021315
        ]
      }
    },
    {
      "type": "Feature",
      "properties": {
        "norad_id": 34011,
        "name": "COSMOS 2251 DEB",
        "group": "cosmos-2251-debris",
        "lat": -44.927630759178925,
        "lon": -74.42572505025328,
        "alt_km": 749.3700554149818,
        "timestamp": "2025-12-27T19:21:59.138781+00:00",
        "meta_object_name": "COSMOS 2251 DEB",
        "meta_object_id": "1993-036GW",
        "meta_epoch": "2025-12-26T21:56:11.390208",
        "meta_mean_motion": 14.41838751,
        "meta_eccentricity": 0.0036439,
        "meta_inclination": 74.0146,
        "meta_ra_of_asc_node": 303.8452,
        "meta_arg_of_pericenter": 23.6527,
        "meta_mean_anomaly": 336.6293,
        "meta_ephemeris_type": 0,
        "meta_classification_type": "U",
        "meta_norad_cat_id": 34011,
        "meta_element_set_no": 999,
        "meta_rev_at_epoch": 88120,
        "meta_bstar": 0.00094731,
        "meta_mean_motion_dot": 3.097e-05,
        "meta_mean_motion_ddot": 0,
        "tle_line1": "1 34011U 93036GW  25360.91402072  .00003097  00000+0  94731-3 0  9996",
        "tle_line2": "2 34011  74.0146 303.8452 0036439  23.6527 336.6293 14.41838751881201"
      },
      "geometry": {
        "type": "Point",
        "coordinates": [
          -74.42572505025328,
          -44.927630759178925
        ]
      }
    },
    {
      "type": "Feature",
      "properties": {
        "norad_id": 34014,
        "name": "COSMOS 2251 DEB",
        "group": "cosmos-2251-debris",
        "lat": 25.372634933418244,
        "lon": 63.51652744228899,
        "alt_km": 665.0761136209103,
        "timestamp": "2025-12-27T19:21:59.138790+00:00",
        "meta_object_name": "COSMOS 2251 DEB",
        "meta_object_id": "1993-036GZ",
        "meta_epoch": "2025-12-27T03:03:29.687616",
        "meta_mean_motion": 14.73309952,
        "meta_eccentricity": 0.00376789,
        "meta_inclination": 74.0164,
        "meta_ra_of_asc_node": 252.6545,
        "meta_arg_of_pericenter": 28.3688,
        "meta_mean_anomaly": 122.1468,
        "meta_ephemeris_type": 0,
        "meta_classification_type": "U",
        "meta_norad_cat_id": 34014,
        "meta_element_set_no": 999,
        "meta_rev_at_epoch": 89515,
        "meta_bstar": 0.0011003988,
        "meta_mean_motion_dot": 7.174e-05,
        "meta_mean_motion_ddot": 0,
        "tle_line1": "1 34014U 93036GZ  25361.12742694  .00007174  00000+0  11004-2 0  9991",
        "tle_line2": "2 34014  74.0164 252.6545 0037678  28.3688 122.1468 14.73309952895156"
      },
      "geometry": {
        "type": "Point",
        "coordinates": [
          63.51652744228899,
          25.372634933418244
        ]
      }
    },
    {
      "type": "Feature",
      "properties": {
        "norad_id": 34015,
        "name": "COSMOS 2251 DEB",
        "group": "cosmos-2251-debris",
        "lat": -63.55514274214158,
        "lon": 95.46969054153757,
        "alt_km": 692.2279414217373,
        "timestamp": "2025-12-27T19:21:59.138799+00:00",
        "meta_object_name": "COSMOS 2251 DEB",
        "meta_object_id": "1993-036HA",
        "meta_epoch": "2025-12-27T11:46:28.792128",
        "meta_mean_motion": 14.60426432,
        "meta_eccentricity": 0.0020743,
        "meta_inclination": 74.0243,
        "meta_ra_of_asc_node": 131.2414,
        "meta_arg_of_pericenter": 227.8606,
        "meta_mean_anomaly": 200.9206,
        "meta_ephemeris_type": 0,
        "meta_classification_type": "U",
        "meta_norad_cat_id": 34015,
        "meta_element_set_no": 999,
        "meta_rev_at_epoch": 88746,
        "meta_bstar": 0.0012988,
        "meta_mean_motion_dot": 6.286e-05,
        "meta_mean_motion_ddot": 0,
        "tle_line1": "1 34015U 93036HA  25361.49061102  .00006286  00000+0  12988-2 0  9995",
        "tle_line2": "2 34015  74.0243 131.2414 0020743 227.8606 200.9206 14.60426432887462"
      },
      "geometry": {
        "type": "Point",
        "coordinates": [
          95.46969054153757,
          -63.55514274214158
        ]
      }
    },
    {
      "type": "Feature",
      "properties": {
        "norad_id": 34018,
        "name": "COSMOS 2251 DEB",
        "group": "cosmos-2251-debris",
        "lat": 71.90338875957214,
        "lon": -175.69800582103454,
        "alt_km": 759.7380081807569,
        "timestamp": "2025-12-27T19:21:59.138808+00:00",
        "meta_object_name": "COSMOS 2251 DEB",
        "meta_object_id": "1993-036HD",
        "meta_epoch": "2025-12-27T07:02:20.330304",
        "meta_mean_motion": 13.81087688,
        "meta_eccentricity": 0.0263034,
        "meta_inclination": 73.8779,
        "meta_ra_of_asc_node": 67.4335,
        "meta_arg_of_pericenter": 100.516,
        "meta_mean_anomaly": 325.0181,
        "meta_ephemeris_type": 0,
        "meta_classification_type": "U",
        "meta_norad_cat_id": 34018,
        "meta_element_set_no": 999,
        "meta_rev_at_epoch": 84858,
        "meta_bstar": 0.00036496,
        "meta_mean_motion_dot": 4.8e-06,
        "meta_mean_motion_ddot": 0,
        "tle_line1": "1 34018U 93036HD  25361.29329086  .00000480  00000+0  36496-3 0  9995",
        "tle_line2": "2 34018  73.8779  67.4335 0263034 100.5160 325.0181 13.81087688848581"
      },
      "geometry": {
        "type": "Point",
        "coordinates": [
          -175.69800582103454,
          71.90338875957214
        ]
      }
    },
    {
      "type": "Feature",
      "properties": {
        "norad_id": 34019,
        "name": "COSMOS 2251 DEB",
        "group": "cosmos-2251-debris",
        "lat": -28.54359908327939,
        "lon": -147.96484146300747,
        "alt_km": 739.8878306733795,
        "timestamp": "2025-12-27T19:21:59.138817+00:00",
        "meta_object_name": "COSMOS 2251 DEB",
        "meta_object_id": "1993-036HE",
        "meta_epoch": "2025-12-27T12:14:41.611776",
        "meta_mean_motion": 14.34001707,
        "meta_eccentricity": 0.0062002,
        "meta_inclination": 73.9544,
        "meta_ra_of_asc_node": 23.5744,
        "meta_arg_of_pericenter": 202.5102,
        "meta_mean_anomaly": 275.8714,
        "meta_ephemeris_type": 0,
        "meta_classification_type": "U",
        "meta_norad_cat_id": 34019,
        "meta_element_set_no": 999,
        "meta_rev_at_epoch": 87732,
        "meta_bstar": 0.00079138,
        "meta_mean_motion_dot": 2.231e-05,
        "meta_mean_motion_ddot": 0,
        "tle_line1": "1 34019U 93036HE  25361.51020384  .00002231  00000+0  79138-3 0  9996",
        "tle_line2": "2 34019  73.9544  23.5744 0062002 202.5102 275.8714 14.34001707877326"
      },
      "geometry": {
        "type": "Point",
        "coordinates": [
          -147.96484146300747,
          -28.54359908327939
        ]
      }
    },
    {
      "type": "Feature",
      "properties": {
        "norad_id": 34021,
        "name": "COSMOS 2251 DEB",
        "group": "cosmos-2251-debris",
        "lat": 73.04389619402045,
        "lon": -148.32008897926616,
        "alt_km": 730.9469131830429,
        "timestamp": "2025-12-27T19:21:59.138827+00:00",
        "meta_object_name": "COSMOS 2251 DEB",
        "meta_object_id": "1993-036HG",
        "meta_epoch": "2025-12-27T01:31:24.082752",
        "meta_mean_motion": 14.50000929,
        "meta_eccentricity": 0.00209612,
        "meta_inclination": 74.0363,
        "meta_ra_of_asc_node": 102.9338,
        "meta_arg_of_pericenter": 245.7045,
        "meta_mean_anomaly": 290.881,
        "meta_ephemeris_type": 0,
        "meta_classification_type": "U",
        "meta_norad_cat_id": 34021,
        "meta_element_set_no": 999,
        "meta_rev_at_epoch": 88837,
        "meta_bstar": 0.00056273124,
        "meta_mean_motion_dot": 2.158e-05,
        "meta_mean_motion_ddot": 0,
        "tle_line1": "1 34021U 93036HG  25361.06347318  .00002158  00000+0  56273-3 0  9991",
        "tle_line2": "2 34021  74.0363 102.9338 0020961 245.7045 290.8810 14.50000929888378"
      },
      "geometry": {
        "type": "Point",
        "coordinates": [
          -148.32008897926616,
          73.04389619402045
        ]
      }
    }
  ]
}